{
  "norad_id": 67515,
  "name": "STARLINK-36543",
  "history": [
    {
      "epoch": "2026-03-28T15:55:04.599552Z",
      "apogee_km": 483.9173580561046,
      "perigee_km": 482.0021515079743,
      "latitude_deg": 1.666407545760938e-05,
      "longitude_deg": 142.38919039230035,
      "height_km": 482.70911707094785,
      "semi_major_axis_km": 6861.096754782039,
      "eccentricity": 0.00013957,
      "inclination_deg": 43.0016,
      "raan_deg": 207.2388,
      "arg_perigee_deg": 271.6464,
      "mean_anomaly_deg": 88.4228,
      "mean_motion_rev_day": 15.27609837
    }
  ]
}