{"fetched_at":"2026-03-30T13:17:50Z","count":15418,"tles":[{"name":"STARLINK-36543","line1":"1 67515U 26012Y   26087.66324768  .00023871  00000+0  87337-3 0  9991","line2":"2 67515  43.0016 207.2388 0001395 271.6464  88.4228 15.27609837 10661","category":"Starlink"}]}